OBJECT_NAME,OBJECT_ID,EPOCH,MEAN_MOTION,ECCENTRICITY,INCLINATION,RA_OF_ASC_NODE,ARG_OF_PERICENTER,MEAN_ANOMALY,EPHEMERIS_TYPE,CLASSIFICATION_TYPE,NORAD_CAT_ID,ELEMENT_SET_NO,REV_AT_EPOCH,BSTAR,MEAN_MOTION_DOT,MEAN_MOTION_DDOT
KUIPER-00428,2026-140B,2026-07-12T05:31:17.542560,15.36909807,.00081831,51.8805,277.8142,20.2283,339.9026,0,U,69593,999,508,.36010311E-3,.12841E-3,0
KUIPER-00481,2026-140C,2026-07-11T13:19:06.708864,15.37955078,.00113557,51.8794,280.7878,264.2787,95.6906,0,U,69594,999,498,.44157477E-3,.16414E-3,0
KUIPER-00490,2026-140D,2026-07-11T05:45:07.608960,15.37919900,.00068649,51.8769,282.4202,327.5188,32.5376,0,U,69595,999,493,.56190404E-3,.20958E-3,0
KUIPER-00493,2026-140E,2026-07-11T14:01:36.801408,15.36617305,.00077283,51.8814,280.9850,25.8406,334.2965,0,U,69596,999,498,.26585432E-3,.9281E-4,0
KUIPER-00496,2026-140F,2026-07-12T06:06:23.978880,15.34379191,.00098766,51.8787,277.9624,44.3097,315.8678,0,U,69597,999,508,.22372457E-3,.7196E-4,0
KUIPER-00513,2026-140G,2026-07-12T05:04:34.544352,15.38113368,.00075907,51.8808,277.6961,327.9393,32.1132,0,U,69598,999,508,.3740677E-3,.13897E-3,0
KUIPER-00516,2026-140H,2026-07-12T05:14:57.298272,15.37550086,.00071055,51.8789,277.7342,343.2640,16.8112,0,U,69599,999,508,.25569632E-3,.9192E-4,0
KUIPER-00517,2026-140J,2026-07-12T06:18:04.355424,15.38784514,.0010493,51.8781,277.2806,280.9937,78.9870,0,U,69600,999,509,.51316382E-3,.19676E-3,0
KUIPER-00520,2026-140K,2026-07-12T05:16:21.501120,15.37602933,.00069125,51.8824,277.7516,345.5327,14.5461,0,U,69601,999,508,.20230153E-3,.72E-4,0
KUIPER-00522,2026-140L,2026-07-11T11:30:34.282080,15.38597501,.00133849,51.8800,281.0380,249.8642,110.0905,0,U,69602,999,497,.45973748E-3,.1749E-3,0
KUIPER-00528,2026-140M,2026-07-11T12:10:11.056224,15.37455088,.00051162,51.8778,281.2089,343.9191,16.1633,0,U,69603,999,497,.38458256E-3,.13985E-3,0
KUIPER-00532,2026-140N,2026-07-12T05:33:31.012416,15.36592066,.00058293,51.8787,277.8180,22.0160,338.1076,0,U,69604,999,508,.36906974E-3,.13029E-3,0
KUIPER-00533,2026-140P,2026-07-11T13:23:38.599296,15.37994592,.00075548,51.8797,280.8100,324.5636,35.4848,0,U,69605,999,498,-.35573987E-2,-.133268E-2,0
KUIPER-00534,2026-140Q,2026-07-11T11:23:27.364992,15.38662919,.00133888,51.8818,281.0115,252.9579,106.9941,0,U,69606,999,497,.29780692E-3,.11202E-3,0
KUIPER-00537,2026-140R,2026-07-11T14:23:35.367360,15.34296234,.00110069,51.8811,281.0851,42.8840,317.3002,0,U,69607,999,498,.36402965E-3,.11929E-3,0
KUIPER-00538,2026-140S,2026-07-12T05:13:01.358112,15.37695853,.00072733,51.8807,277.7349,335.4639,24.6001,0,U,69608,999,508,.42125216E-3,.15487E-3,0
KUIPER-00540,2026-140T,2026-07-11T13:51:43.070112,15.36919037,.00066263,51.8830,280.9443,10.8065,349.3063,0,U,69609,999,498,.3637808E-3,.12977E-3,0
KUIPER-00541,2026-140U,2026-07-10T21:48:08.076384,15.38356975,.00083336,51.8827,283.9683,308.1236,51.8999,0,U,69610,999,488,.3697798E-3,.13847E-3,0
KUIPER-00542,2026-140V,2026-07-11T13:21:26.293248,15.38234454,.00079119,51.8812,280.8032,300.8666,59.1543,0,U,69611,999,498,.38070745E-3,.1421E-3,0
KUIPER-00543,2026-140W,2026-07-12T05:34:16.603104,15.36795183,.000768,51.8770,277.8153,26.9647,333.1737,0,U,69612,999,508,.46771823E-3,.1674E-3,0
KUIPER-00544,2026-140X,2026-07-11T11:53:56.821056,15.38126834,.00065168,51.8799,281.1405,305.8745,54.1636,0,U,69613,999,497,.47072379E-3,.17604E-3,0
KUIPER-00546,2026-140Y,2026-07-11T12:58:01.365312,15.38810193,.00142602,51.8783,280.6956,250.2493,109.6957,0,U,69614,999,498,.24595513E-3,.9228E-4,0
KUIPER-00547,2026-140Z,2026-07-12T06:27:34.681824,15.37873754,.00108919,51.8825,277.3363,279.7825,80.1932,0,U,69615,999,509,.45776344E-3,.16984E-3,0
KUIPER-00549,2026-140AA,2026-07-12T05:21:47.798496,15.37306081,.00085122,51.8818,277.7694,6.6806,353.4293,0,U,69616,999,508,.48713312E-3,.17753E-3,0
KUIPER-00550,2026-140AB,2026-07-12T06:17:52.137600,15.32625297,.00100193,51.8797,278.0158,69.2499,290.9558,0,U,69617,999,508,-.21491962E-3,-.7253E-4,0
KUIPER-00551,2026-140AC,2026-07-11T13:07:49.234368,15.38371575,.00125175,51.8777,280.7418,254.9847,104.9755,0,U,69618,999,498,.39372991E-3,.14799E-3,0
KUIPER-00554,2026-140AD,2026-07-12T06:25:05.010240,15.37928097,.00111767,51.8780,277.3159,281.0431,78.9299,0,U,69619,999,509,.27433322E-3,.10028E-3,0
KUIPER-00555,2026-140AE,2026-07-12T06:00:02.000160,15.37896352,.00113014,51.8816,277.3766,267.0810,11.6376,0,U,69620,999,455,.66427164E-3,.24874E-3,0
KUIPER-00556,2026-140AF,2026-07-12T06:20:29.483232,15.38289150,.0011631,51.8789,277.2984,253.6905,106.2804,0,U,69621,999,509,.37195453E-3,.13913E-3,0
KUIPER-00557,2026-140AG,2026-07-11T11:49:10.144992,15.37527254,.00099138,51.8807,281.1278,288.6863,71.3047,0,U,69622,999,497,.34423744E-3,.12516E-3,0
